SWARM B                 
1 39451U 13067A   26169.57411713  .00002763  00000+0  98213-4 0  9996
2 39451  87.7441 341.8948 0003261  85.3358 274.8263 15.28558592683454
SWARM A                 
1 39452U 13067B   26169.63914265  .00008366  00000+0  14358-3 0  9996
2 39452  87.3319  55.7021 0003018  95.6815 264.4790 15.50977539706479
SWARM C                 
1 39453U 13067C   26169.63903087  .00008353  00000+0  14336-3 0  9999
2 39453  87.3318  54.2833 0003017  96.0392 264.1213 15.50976019706433
BRITE-CA1 (TORONTO)     
1 40020U 14033L   26169.60050783  .00000571  00000+0  93677-4 0  9998
2 40020  97.9742 298.5023 0077213 272.4058  86.8311 14.72678402642429
OCO 2                   
1 40059U 14035A   26169.59754237  .00000318  00000+0  80595-4 0  9999
2 40059  98.2017 110.8691 0001507  84.9232 275.2138 14.57112234636254
BRITE-PL2 (HEWELIUSZ)   
1 40119U 14049B   26169.57828692  .00001593  00000+0  15241-3 0  9997
2 40119  97.9099 281.5889 0015324 104.3589 255.9333 14.94597585641655
MMS 1                   
1 40482U 15011A   26169.66671296 -.00000700  00000+0  00000+0 0  9999
2 40482  72.1928 348.7598 8322908 167.4809  89.3769  0.28348621  1388
MMS 2                   
1 40483U 15011B   26169.66671296 -.00000700  00000+0  00000+0 0  9990
2 40483  72.1901 348.7633 8323620 167.4866  89.3652  0.28348356  1381
MMS 3                   
1 40484U 15011C   26169.66671296 -.00000700  00000+0  00000+0 0  9991
2 40484  72.1929 348.7680 8323084 167.4821  89.3502  0.28347955  1387
MMS 4                   
1 40485U 15011D   26169.66671296 -.00000700  00000+0  00000+0 0  9992
2 40485  72.1893 348.7636 8322420 167.4889  89.3489  0.28348321  1388
ASTROSAT                
1 40930U 15052A   26169.16786421  .00001390  00000+0  87537-4 0  9994
2 40930   5.9954 148.2888 0007721  46.0722 314.0042 14.82508881579973
DAMPE                   
1 41173U 15078A   26169.60650358  .00001110  00000+0  39847-4 0  9991
2 41173  97.4551 175.0805 0013790  72.6526 287.6222 15.30788572584768
PISAT                   
1 41784U 16059B   26168.96139996  .00000656  00000+0  11936-3 0  9999
2 41784  97.8178 169.3809 0028443 200.2325 159.7756 14.68984509519859
HXMT (HUIYAN)           
1 42758U 17034A   26169.51569537  .00002071  00000+0  10916-3 0  9995
2 42758  43.0125 175.6434 0030752 155.7332 204.4972 15.18483181497868
FLYING LAPTOP           
1 42831U 17042G   26169.58533311  .00002760  00000+0  21898-3 0  9990
2 42831  97.4693 325.0638 0019607 117.0555 243.2674 15.01153248486660
ZHANGHENG 1-01 (CSES-1) 
1 43194U 18015C   26169.58649995  .00005362  00000+0  24547-3 0  9995
2 43194  97.6875 335.2712 0017066 261.0688  98.8614 15.20825751464858
SALSAT                  
1 46495U 20068K   26169.45370448  .00006100  00000+0  21401-3 0  9990
2 46495  97.8850 172.5955 0007986 302.8690  57.1780 15.29814902315557
IXPE                    
1 49954U 21121A   26169.58334491  .00008505  00000+0  44946-3 0  9996
2 49954   0.2298 307.1901 0007514  98.8589 267.3136 15.10260287  5778
SMILE                   
1 69123U 26109A   26158.38327019 -.00000041  00000+0 -36778-3 0  9994
2 69123  69.9787 209.3069 3310191 288.5544  45.7342  7.54049028  2480
