OBJECT_NAME,OBJECT_ID,EPOCH,MEAN_MOTION,ECCENTRICITY,INCLINATION,RA_OF_ASC_NODE,ARG_OF_PERICENTER,MEAN_ANOMALY,EPHEMERIS_TYPE,CLASSIFICATION_TYPE,NORAD_CAT_ID,ELEMENT_SET_NO,REV_AT_EPOCH,BSTAR,MEAN_MOTION_DOT,MEAN_MOTION_DDOT
SWARM B,2013-067A,2026-06-18T13:46:43.720032,15.28558592,.00032615,87.7441,341.8948,85.3358,274.8263,0,U,39451,999,68345,.98213179E-4,.2763E-4,0
SWARM A,2013-067B,2026-06-18T15:20:21.924960,15.50977539,.00030189,87.3319,55.7021,95.6815,264.4790,0,U,39452,999,70647,.14358079E-3,.8366E-4,0
SWARM C,2013-067C,2026-06-18T15:20:12.267168,15.50976019,.00030171,87.3318,54.2833,96.0392,264.1213,0,U,39453,999,70643,.14336397E-3,.8353E-4,0
BRITE-CA1 (TORONTO),2014-033L,2026-06-18T14:24:43.876512,14.72678402,.00772134,97.9742,298.5023,272.4058,86.8311,0,U,40020,999,64242,.93677348E-4,.571E-5,0
OCO 2,2014-035A,2026-06-18T14:20:27.660768,14.57112234,.00015074,98.2017,110.8691,84.9232,275.2138,0,U,40059,999,63625,.80594711E-4,.318E-5,0
BRITE-PL2 (HEWELIUSZ),2014-049B,2026-06-18T13:52:43.989888,14.94597585,.00153248,97.9099,281.5889,104.3589,255.9333,0,U,40119,999,64165,.15240957E-3,.1593E-4,0
MMS 1,2015-011A,2026-06-18T16:00:03.999744,0.28348621,.83229084,72.1928,348.7598,167.4809,89.3769,0,U,40482,999,138,0,-.7E-5,0
MMS 2,2015-011B,2026-06-18T16:00:03.999744,0.28348356,.83236203,72.1901,348.7633,167.4866,89.3652,0,U,40483,999,138,0,-.7E-5,0
MMS 3,2015-011C,2026-06-18T16:00:03.999744,0.28347955,.83230841,72.1929,348.7680,167.4821,89.3502,0,U,40484,999,138,0,-.7E-5,0
MMS 4,2015-011D,2026-06-18T16:00:03.999744,0.28348321,.83224209,72.1893,348.7636,167.4889,89.3489,0,U,40485,999,138,0,-.7E-5,0
ASTROSAT,2015-052A,2026-06-18T04:01:43.467744,14.82508881,.00077217,5.9954,148.2888,46.0722,314.0042,0,U,40930,999,57997,.87537357E-4,.139E-4,0
DAMPE,2015-078A,2026-06-18T14:33:21.909312,15.30788572,.001379,97.4551,175.0805,72.6526,287.6222,0,U,41173,999,58476,.39847133E-4,.111E-4,0
PISAT,2016-059B,2026-06-17T23:04:24.956544,14.68984509,.00284433,97.8178,169.3809,200.2325,159.7756,0,U,41784,999,51985,.11935816E-3,.656E-5,0
HXMT (HUIYAN),2017-034A,2026-06-18T12:22:36.079968,15.18483181,.00307529,43.0125,175.6434,155.7332,204.4972,0,U,42758,999,49786,.1091559E-3,.2071E-4,0
FLYING LAPTOP,2017-042G,2026-06-18T14:02:52.780704,15.01153248,.00196076,97.4693,325.0638,117.0555,243.2674,0,U,42831,999,48666,.21898365E-3,.276E-4,0
ZHANGHENG 1-01 (CSES-1),2018-015C,2026-06-18T14:04:33.595680,15.20825751,.00170664,97.6875,335.2712,261.0688,98.8614,0,U,43194,999,46485,.24546943E-3,.5362E-4,0
SALSAT,2020-068K,2026-06-18T10:53:20.067072,15.29814902,.00079869,97.8850,172.5955,302.8690,57.1780,0,U,46495,999,31555,.21400854E-3,.61E-4,0
IXPE,2021-121A,2026-06-18T14:00:01.000224,15.10260287,.00075141,0.2298,307.1901,98.8589,267.3136,0,U,49954,999,577,.44946212E-3,.8505E-4,0
SMILE,2026-109A,2026-06-07T09:11:54.544416,7.54049028,.3310191,69.9787,209.3069,288.5544,45.7342,0,U,69123,999,248,-.36778157E-3,-.41E-6,0
